KUIPER-00035            
1 63748U 25088AA  25359.22191967 -.00004434  00000+0 -55244-3 0  9991
2 63748  51.9002  83.4102 0006520 179.8519 180.2446 14.79947131 36480
KUIPER-00037            
1 63749U 25088AB  25359.29184485  .00020009  00000+0  26250-2 0  9994
2 63749  51.8997  82.0538 0000237  81.9370 278.1619 14.80266668 37298
KUIPER-00038            
1 63750U 25088AC  25358.90208586 -.00002622  00000+0 -31471-3 0  9997
2 63750  51.9018  68.7898 0006964 183.4469 176.6447 14.79931460 36449
KUIPER-00039            
1 64500U 25134A   25359.00976483  .00003368  00000+0  47015-3 0  9990
2 64500  51.8992 203.3170 0011572  43.7781 316.4097 14.79966378 29015
KUIPER-00040            
1 64501U 25134B   25358.99728393 -.00002377  00000+0 -28156-3 0  9999
2 64501  51.8985 214.5266 0017086  23.0982 337.0745 14.79926361 28856
KUIPER-00041            
1 64502U 25134C   25359.26638752 -.00005144  00000+0 -64497-3 0  9993
2 64502  51.8962 214.6910 0012719  24.7589 335.3982 14.79931938 28870
KUIPER-00042            
1 64503U 25134D   25359.00000539  .00000294  00000+0  67906-4 0  9990
2 64503  51.8980 211.8743 0012735  35.4559 324.7247 14.79935618 28895
KUIPER-00043            
1 64504U 25134E   25359.00820065  .00010458  00000+0  13974-2 0  9992
2 64504  51.8990 204.2866 0004051  57.5354 302.5999 14.79971018 29005
