<?xml version="1.0" encoding="UTF-8"?>
<ndm xmlns:xsi="http://www.w3.org/2001/XMLSchema-instance" xsi:noNamespaceSchemaLocation="https://sanaregistry.org/r/ndmxml_unqualified/ndmxml-2.0.0-master-2.0.xsd">
<omm id="CCSDS_OMM_VERS" version="2.0">
<header><CREATION_DATE/><ORIGINATOR/></header><body><segment><metadata><OBJECT_NAME>KUIPER-00035</OBJECT_NAME><OBJECT_ID>2025-088AA</OBJECT_ID><CENTER_NAME>EARTH</CENTER_NAME><REF_FRAME>TEME</REF_FRAME><TIME_SYSTEM>UTC</TIME_SYSTEM><MEAN_ELEMENT_THEORY>SGP4</MEAN_ELEMENT_THEORY></metadata><data><meanElements><EPOCH>2025-12-25T05:19:33.859488</EPOCH><MEAN_MOTION>14.79947131</MEAN_MOTION><ECCENTRICITY>.00065202</ECCENTRICITY><INCLINATION>51.9002</INCLINATION><RA_OF_ASC_NODE>83.4102</RA_OF_ASC_NODE><ARG_OF_PERICENTER>179.8519</ARG_OF_PERICENTER><MEAN_ANOMALY>180.2446</MEAN_ANOMALY></meanElements><tleParameters><EPHEMERIS_TYPE>0</EPHEMERIS_TYPE><CLASSIFICATION_TYPE>U</CLASSIFICATION_TYPE><NORAD_CAT_ID>63748</NORAD_CAT_ID><ELEMENT_SET_NO>999</ELEMENT_SET_NO><REV_AT_EPOCH>3648</REV_AT_EPOCH><BSTAR>-.55244262E-3</BSTAR><MEAN_MOTION_DOT>-.4434E-4</MEAN_MOTION_DOT><MEAN_MOTION_DDOT>0</MEAN_MOTION_DDOT></tleParameters></data></segment></body></omm>
<omm id="CCSDS_OMM_VERS" version="2.0">
<header><CREATION_DATE/><ORIGINATOR/></header><body><segment><metadata><OBJECT_NAME>KUIPER-00037</OBJECT_NAME><OBJECT_ID>2025-088AB</OBJECT_ID><CENTER_NAME>EARTH</CENTER_NAME><REF_FRAME>TEME</REF_FRAME><TIME_SYSTEM>UTC</TIME_SYSTEM><MEAN_ELEMENT_THEORY>SGP4</MEAN_ELEMENT_THEORY></metadata><data><meanElements><EPOCH>2025-12-25T07:00:15.395040</EPOCH><MEAN_MOTION>14.80266668</MEAN_MOTION><ECCENTRICITY>.00002378</ECCENTRICITY><INCLINATION>51.8997</INCLINATION><RA_OF_ASC_NODE>82.0538</RA_OF_ASC_NODE><ARG_OF_PERICENTER>81.9370</ARG_OF_PERICENTER><MEAN_ANOMALY>278.1619</MEAN_ANOMALY></meanElements><tleParameters><EPHEMERIS_TYPE>0</EPHEMERIS_TYPE><CLASSIFICATION_TYPE>U</CLASSIFICATION_TYPE><NORAD_CAT_ID>63749</NORAD_CAT_ID><ELEMENT_SET_NO>999</ELEMENT_SET_NO><REV_AT_EPOCH>3729</REV_AT_EPOCH><BSTAR>.26249831E-2</BSTAR><MEAN_MOTION_DOT>.20009E-3</MEAN_MOTION_DOT><MEAN_MOTION_DDOT>0</MEAN_MOTION_DDOT></tleParameters></data></segment></body></omm>
<omm id="CCSDS_OMM_VERS" version="2.0">
<header><CREATION_DATE/><ORIGINATOR/></header><body><segment><metadata><OBJECT_NAME>KUIPER-00038</OBJECT_NAME><OBJECT_ID>2025-088AC</OBJECT_ID><CENTER_NAME>EARTH</CENTER_NAME><REF_FRAME>TEME</REF_FRAME><TIME_SYSTEM>UTC</TIME_SYSTEM><MEAN_ELEMENT_THEORY>SGP4</MEAN_ELEMENT_THEORY></metadata><data><meanElements><EPOCH>2025-12-24T21:39:00.218304</EPOCH><MEAN_MOTION>14.79931460</MEAN_MOTION><ECCENTRICITY>.0006964</ECCENTRICITY><INCLINATION>51.9018</INCLINATION><RA_OF_ASC_NODE>68.7898</RA_OF_ASC_NODE><ARG_OF_PERICENTER>183.4469</ARG_OF_PERICENTER><MEAN_ANOMALY>176.6447</MEAN_ANOMALY></meanElements><tleParameters><EPHEMERIS_TYPE>0</EPHEMERIS_TYPE><CLASSIFICATION_TYPE>U</CLASSIFICATION_TYPE><NORAD_CAT_ID>63750</NORAD_CAT_ID><ELEMENT_SET_NO>999</ELEMENT_SET_NO><REV_AT_EPOCH>3644</REV_AT_EPOCH><BSTAR>-.31471E-3</BSTAR><MEAN_MOTION_DOT>-.2622E-4</MEAN_MOTION_DOT><MEAN_MOTION_DDOT>0</MEAN_MOTION_DDOT></tleParameters></data></segment></body></omm>
<omm id="CCSDS_OMM_VERS" version="2.0">
<header><CREATION_DATE/><ORIGINATOR/></header><body><segment><metadata><OBJECT_NAME>KUIPER-00039</OBJECT_NAME><OBJECT_ID>2025-134A</OBJECT_ID><CENTER_NAME>EARTH</CENTER_NAME><REF_FRAME>TEME</REF_FRAME><TIME_SYSTEM>UTC</TIME_SYSTEM><MEAN_ELEMENT_THEORY>SGP4</MEAN_ELEMENT_THEORY></metadata><data><meanElements><EPOCH>2025-12-25T00:14:03.681312</EPOCH><MEAN_MOTION>14.79966378</MEAN_MOTION><ECCENTRICITY>.00115722</ECCENTRICITY><INCLINATION>51.8992</INCLINATION><RA_OF_ASC_NODE>203.3170</RA_OF_ASC_NODE><ARG_OF_PERICENTER>43.7781</ARG_OF_PERICENTER><MEAN_ANOMALY>316.4097</MEAN_ANOMALY></meanElements><tleParameters><EPHEMERIS_TYPE>0</EPHEMERIS_TYPE><CLASSIFICATION_TYPE>U</CLASSIFICATION_TYPE><NORAD_CAT_ID>64500</NORAD_CAT_ID><ELEMENT_SET_NO>999</ELEMENT_SET_NO><REV_AT_EPOCH>2901</REV_AT_EPOCH><BSTAR>.47014705E-3</BSTAR><MEAN_MOTION_DOT>.3368E-4</MEAN_MOTION_DOT><MEAN_MOTION_DDOT>0</MEAN_MOTION_DDOT></tleParameters></data></segment></body></omm>
<omm id="CCSDS_OMM_VERS" version="2.0">
<header><CREATION_DATE/><ORIGINATOR/></header><body><segment><metadata><OBJECT_NAME>KUIPER-00040</OBJECT_NAME><OBJECT_ID>2025-134B</OBJECT_ID><CENTER_NAME>EARTH</CENTER_NAME><REF_FRAME>TEME</REF_FRAME><TIME_SYSTEM>UTC</TIME_SYSTEM><MEAN_ELEMENT_THEORY>SGP4</MEAN_ELEMENT_THEORY></metadata><data><meanElements><EPOCH>2025-12-24T23:56:05.331552</EPOCH><MEAN_MOTION>14.79926361</MEAN_MOTION><ECCENTRICITY>.00170865</ECCENTRICITY><INCLINATION>51.8985</INCLINATION><RA_OF_ASC_NODE>214.5266</RA_OF_ASC_NODE><ARG_OF_PERICENTER>23.0982</ARG_OF_PERICENTER><MEAN_ANOMALY>337.0745</MEAN_ANOMALY></meanElements><tleParameters><EPHEMERIS_TYPE>0</EPHEMERIS_TYPE><CLASSIFICATION_TYPE>U</CLASSIFICATION_TYPE><NORAD_CAT_ID>64501</NORAD_CAT_ID><ELEMENT_SET_NO>999</ELEMENT_SET_NO><REV_AT_EPOCH>2885</REV_AT_EPOCH><BSTAR>-.28155975E-3</BSTAR><MEAN_MOTION_DOT>-.2377E-4</MEAN_MOTION_DOT><MEAN_MOTION_DDOT>0</MEAN_MOTION_DDOT></tleParameters></data></segment></body></omm>
<omm id="CCSDS_OMM_VERS" version="2.0">
<header><CREATION_DATE/><ORIGINATOR/></header><body><segment><metadata><OBJECT_NAME>KUIPER-00041</OBJECT_NAME><OBJECT_ID>2025-134C</OBJECT_ID><CENTER_NAME>EARTH</CENTER_NAME><REF_FRAME>TEME</REF_FRAME><TIME_SYSTEM>UTC</TIME_SYSTEM><MEAN_ELEMENT_THEORY>SGP4</MEAN_ELEMENT_THEORY></metadata><data><meanElements><EPOCH>2025-12-25T06:23:35.881728</EPOCH><MEAN_MOTION>14.79931938</MEAN_MOTION><ECCENTRICITY>.00127199</ECCENTRICITY><INCLINATION>51.8962</INCLINATION><RA_OF_ASC_NODE>214.6910</RA_OF_ASC_NODE><ARG_OF_PERICENTER>24.7589</ARG_OF_PERICENTER><MEAN_ANOMALY>335.3982</MEAN_ANOMALY></meanElements><tleParameters><EPHEMERIS_TYPE>0</EPHEMERIS_TYPE><CLASSIFICATION_TYPE>U</CLASSIFICATION_TYPE><NORAD_CAT_ID>64502</NORAD_CAT_ID><ELEMENT_SET_NO>999</ELEMENT_SET_NO><REV_AT_EPOCH>2887</REV_AT_EPOCH><BSTAR>-.6449688E-3</BSTAR><MEAN_MOTION_DOT>-.5144E-4</MEAN_MOTION_DOT><MEAN_MOTION_DDOT>0</MEAN_MOTION_DDOT></tleParameters></data></segment></body></omm>
<omm id="CCSDS_OMM_VERS" version="2.0">
<header><CREATION_DATE/><ORIGINATOR/></header><body><segment><metadata><OBJECT_NAME>KUIPER-00042</OBJECT_NAME><OBJECT_ID>2025-134D</OBJECT_ID><CENTER_NAME>EARTH</CENTER_NAME><REF_FRAME>TEME</REF_FRAME><TIME_SYSTEM>UTC</TIME_SYSTEM><MEAN_ELEMENT_THEORY>SGP4</MEAN_ELEMENT_THEORY></metadata><data><meanElements><EPOCH>2025-12-25T00:00:00.465696</EPOCH><MEAN_MOTION>14.79935618</MEAN_MOTION><ECCENTRICITY>.0012735</ECCENTRICITY><INCLINATION>51.8980</INCLINATION><RA_OF_ASC_NODE>211.8743</RA_OF_ASC_NODE><ARG_OF_PERICENTER>35.4559</ARG_OF_PERICENTER><MEAN_ANOMALY>324.7247</MEAN_ANOMALY></meanElements><tleParameters><EPHEMERIS_TYPE>0</EPHEMERIS_TYPE><CLASSIFICATION_TYPE>U</CLASSIFICATION_TYPE><NORAD_CAT_ID>64503</NORAD_CAT_ID><ELEMENT_SET_NO>999</ELEMENT_SET_NO><REV_AT_EPOCH>2889</REV_AT_EPOCH><BSTAR>.67905696E-4</BSTAR><MEAN_MOTION_DOT>.294E-5</MEAN_MOTION_DOT><MEAN_MOTION_DDOT>0</MEAN_MOTION_DDOT></tleParameters></data></segment></body></omm>
<omm id="CCSDS_OMM_VERS" version="2.0">
<header><CREATION_DATE/><ORIGINATOR/></header><body><segment><metadata><OBJECT_NAME>KUIPER-00043</OBJECT_NAME><OBJECT_ID>2025-134E</OBJECT_ID><CENTER_NAME>EARTH</CENTER_NAME><REF_FRAME>TEME</REF_FRAME><TIME_SYSTEM>UTC</TIME_SYSTEM><MEAN_ELEMENT_THEORY>SGP4</MEAN_ELEMENT_THEORY></metadata><data><meanElements><EPOCH>2025-12-25T00:11:48.536160</EPOCH><MEAN_MOTION>14.79971018</MEAN_MOTION><ECCENTRICITY>.00040518</ECCENTRICITY><INCLINATION>51.8990</INCLINATION><RA_OF_ASC_NODE>204.2866</RA_OF_ASC_NODE><ARG_OF_PERICENTER>57.5354</ARG_OF_PERICENTER><MEAN_ANOMALY>302.5999</MEAN_ANOMALY></meanElements><tleParameters><EPHEMERIS_TYPE>0</EPHEMERIS_TYPE><CLASSIFICATION_TYPE>U</CLASSIFICATION_TYPE><NORAD_CAT_ID>64504</NORAD_CAT_ID><ELEMENT_SET_NO>999</ELEMENT_SET_NO><REV_AT_EPOCH>2900</REV_AT_EPOCH><BSTAR>.13974107E-2</BSTAR><MEAN_MOTION_DOT>.10458E-3</MEAN_MOTION_DOT><MEAN_MOTION_DDOT>0</MEAN_MOTION_DDOT></tleParameters></data></segment></body></omm>

</ndm>
